{"type": "FeatureCollection", "features": [ {"type": "Feature", "properties": {"norad_id": 34031, "name": "COSMOS 2251 DEB", "group": "cosmos-2251-debris", "lat": -54.423249655578815, "lon": 128.158349366361, "alt_km": 687.3463503813391, "timestamp": "2025-12-04T07:39:36.525432+00:00", "meta": {"OBJECT_NAME": "COSMOS 2251 DEB", "OBJECT_ID": "1993-036HS", "EPOCH": "2025-12-03T18:49:51.728736", "MEAN_MOTION": 14.59508576, "ECCENTRICITY": 0.0022927, "INCLINATION": 74.0115, "RA_OF_ASC_NODE": 152.8085, "ARG_OF_PERICENTER": 273.4164, "MEAN_ANOMALY": 101.2427, "EPHEMERIS_TYPE": 0, "CLASSIFICATION_TYPE": "U", "NORAD_CAT_ID": 34031, "ELEMENT_SET_NO": 999, "REV_AT_EPOCH": 88435, "BSTAR": 0.0018509622, "MEAN_MOTION_DOT": 8.801e-05, "MEAN_MOTION_DDOT": 0}, "tle": {"line1": "1 34031U 93036HS  25337.78462649  .00008801  00000+0  18510-2 0  9991", "line2": "2 34031  74.0115 152.8085 0022927 273.4164 101.2427 14.59508576884354"}}, "geometry": {"type": "Point", "coordinates": [128.158349366361, -54.423249655578815]}}, {"type": "Feature", "properties": {"norad_id": 34035, "name": "COSMOS 2251 DEB", "group": "cosmos-2251-debris", "lat": -19.62300849477664, "lon": -0.8727156917532493, "alt_km": 697.1787682799477, "timestamp": "2025-12-04T07:39:36.525441+00:00", "meta": {"OBJECT_NAME": "COSMOS 2251 DEB", "OBJECT_ID": "1993-036HW", "EPOCH": "2025-12-03T20:26:10.938336", "MEAN_MOTION": 14.51767856, "ECCENTRICITY": 0.00441228, "INCLINATION": 74.0657, "RA_OF_ASC_NODE": 5.8523, "ARG_OF_PERICENTER": 9.535, "MEAN_ANOMALY": 47.2221, "EPHEMERIS_TYPE": 0, "CLASSIFICATION_TYPE": "U", "NORAD_CAT_ID": 34035, "ELEMENT_SET_NO": 999, "REV_AT_EPOCH": 87837, "BSTAR": 0.0028072965, "MEAN_MOTION_DOT": 0.0001142, "MEAN_MOTION_DDOT": 0}, "tle": {"line1": "1 34035U 93036HW  25337.85151549  .00011420  00000+0  28073-2 0  9993", "line2": "2 34035  74.0657   5.8523 0044122   9.5350  47.2221 14.51767856878375"}}, "geometry": {"type": "Point", "coordinates": [-0.8727156917532493, -19.62300849477664]}}, {"type": "Feature", "properties": {"norad_id": 34036, "name": "COSMOS 2251 DEB", "group": "cosmos-2251-debris", "lat": 28.55678767553788, "lon": 175.22155235470174, "alt_km": 594.4612347397069, "timestamp": "2025-12-04T07:39:36.525450+00:00", "meta": {"OBJECT_NAME": "COSMOS 2251 DEB", "OBJECT_ID": "1993-036HX", "EPOCH": "2025-12-03T15:27:13.917312", "MEAN_MOTION": 14.93800891, "ECCENTRICITY": 0.00148465, "INCLINATION": 74.0198, "RA_OF_ASC_NODE": 167.609, "ARG_OF_PERICENTER": 201.8914, "MEAN_ANOMALY": 158.1638, "EPHEMERIS_TYPE": 0, "CLASSIFICATION_TYPE": "U", "NORAD_CAT_ID": 34036, "ELEMENT_SET_NO": 999, "REV_AT_EPOCH": 88434, "BSTAR": 0.0048127428, "MEAN_MOTION_DOT": 0.00051513, "MEAN_MOTION_DDOT": 0}, "tle": {"line1": "1 34036U 93036HX  25337.64391108  .00051513  00000+0  48127-2 0  9997", "line2": "2 34036  74.0198 167.6090 0014846 201.8914 158.1638 14.93800891884346"}}, "geometry": {"type": "Point", "coordinates": [175.22155235470174, 28.55678767553788]}}, {"type": "Feature", "properties": {"norad_id": 34037, "name": "COSMOS 2251 DEB", "group": "cosmos-2251-debris", "lat": 71.00624026840103, "lon": -170.31758364384947, "alt_km": 733.4179411528357, "timestamp": "2025-12-04T07:39:36.525459+00:00", "meta": {"OBJECT_NAME": "COSMOS 2251 DEB", "OBJECT_ID": "1993-036HY", "EPOCH": "2025-12-03T07:45:54.663840", "MEAN_MOTION": 14.34620684, "ECCENTRICITY": 0.0052422, "INCLINATION": 74.0527, "RA_OF_ASC_NODE": 67.6752, "ARG_OF_PERICENTER": 120.5363, "MEAN_ANOMALY": 240.0978, "EPHEMERIS_TYPE": 0, "CLASSIFICATION_TYPE": "U", "NORAD_CAT_ID": 34037, "ELEMENT_SET_NO": 999, "REV_AT_EPOCH": 87582, "BSTAR": 0.00082651, "MEAN_MOTION_DOT": 2.348e-05, "MEAN_MOTION_DDOT": 0}, "tle": {"line1": "1 34037U 93036HY  25337.32354935  .00002348  00000+0  82651-3 0  9993", "line2": "2 34037  74.0527  67.6752 0052422 120.5363 240.0978 14.34620684875820"}}, "geometry": {"type": "Point", "coordinates": [-170.31758364384947, 71.00624026840103]}}, {"type": "Feature", "properties": {"norad_id": 34040, "name": "COSMOS 2251 DEB", "group": "cosmos-2251-debris", "lat": -18.27928424795315, "lon": -94.76905586360505, "alt_km": 1252.7722392557753, "timestamp": "2025-12-04T07:39:36.525469+00:00", "meta": {"OBJECT_NAME": "COSMOS 2251 DEB", "OBJECT_ID": "1993-036JB", "EPOCH": "2025-12-03T13:09:42.244704", "MEAN_MOTION": 13.68360013, "ECCENTRICITY": 0.03428166, "INCLINATION": 73.9555, "RA_OF_ASC_NODE": 81.0497, "ARG_OF_PERICENTER": 36.326, "MEAN_ANOMALY": 326.0604, "EPHEMERIS_TYPE": 0, "CLASSIFICATION_TYPE": "U", "NORAD_CAT_ID": 34040, "ELEMENT_SET_NO": 999, "REV_AT_EPOCH": 83474, "BSTAR": 0.00046477974, "MEAN_MOTION_DOT": 5.77e-06, "MEAN_MOTION_DDOT": 0}, "tle": {"line1": "1 34040U 93036JB  25337.54840561  .00000577  00000+0  46478-3 0  9995", "line2": "2 34040  73.9555  81.0497 0342816  36.3260 326.0604 13.68360013834748"}}, "geometry": {"type": "Point", "coordinates": [-94.76905586360505, -18.27928424795315]}}, {"type": "Feature", "properties": {"norad_id": 34045, "name": "COSMOS 2251 DEB", "group": "cosmos-2251-debris", "lat": 16.098050457399754, "lon": 141.50286415574914, "alt_km": 784.8806555361734, "timestamp": "2025-12-04T07:39:36.525478+00:00", "meta": {"OBJECT_NAME": "COSMOS 2251 DEB", "OBJECT_ID": "1993-036JG", "EPOCH": "2025-12-03T09:53:33.191808", "MEAN_MOTION": 14.34060223, "ECCENTRICITY": 0.00253485, "INCLINATION": 74.0386, "RA_OF_ASC_NODE": 327.8996, "ARG_OF_PERICENTER": 54.2394, "MEAN_ANOMALY": 108.0917, "EPHEMERIS_TYPE": 0, "CLASSIFICATION_TYPE": "U", "NORAD_CAT_ID": 34045, "ELEMENT_SET_NO": 999, "REV_AT_EPOCH": 87899, "BSTAR": 0.00014334052, "MEAN_MOTION_DOT": 3.76e-06, "MEAN_MOTION_DDOT": 0}, "tle": {"line1": "1 34045U 93036JG  25337.41218972  .00000376  00000+0  14334-3 0  9994", "line2": "2 34045  74.0386 327.8996 0025348  54.2394 108.0917 14.34060223878991"}}, "geometry": {"type": "Point", "coordinates": [141.50286415574914, 16.098050457399754]}}, {"type": "Feature", "properties": {"norad_id": 34046, "name": "COSMOS 2251 DEB", "group": "cosmos-2251-debris", "lat": 40.07858799036999, "lon": -167.73756000368292, "alt_km": 686.0155520463422, "timestamp": "2025-12-04T07:39:36.525487+00:00", "meta": {"OBJECT_NAME": "COSMOS 2251 DEB", "OBJECT_ID": "1993-036JH", "EPOCH": "2025-12-03T04:43:41.841120", "MEAN_MOTION": 14.46341993, "ECCENTRICITY": 0.0074888, "INCLINATION": 74.0404, "RA_OF_ASC_NODE": 28.2895, "ARG_OF_PERICENTER": 114.54, "MEAN_ANOMALY": 302.4126, "EPHEMERIS_TYPE": 0, "CLASSIFICATION_TYPE": "U", "NORAD_CAT_ID": 34046, "ELEMENT_SET_NO": 999, "REV_AT_EPOCH": 87688, "BSTAR": 0.0015494, "MEAN_MOTION_DOT": 5.733e-05, "MEAN_MOTION_DDOT": 0}, "tle": {"line1": "1 34046U 93036JH  25337.19701205  .00005733  00000+0  15494-2 0  9995", "line2": "2 34046  74.0404  28.2895 0074888 114.5400 302.4126 14.46341993876881"}}, "geometry": {"type": "Point", "coordinates": [-167.73756000368292, 40.07858799036999]}}, {"type": "Feature", "properties": {"norad_id": 34050, "name": "COSMOS 2251 DEB", "group": "cosmos-2251-debris", "lat": 73.09940974638035, "lon": 134.64220225474088, "alt_km": 743.8626748409906, "timestamp": "2025-12-04T07:39:36.525496+00:00", "meta": {"OBJECT_NAME": "COSMOS 2251 DEB", "OBJECT_ID": "1993-036JM", "EPOCH": "2025-12-03T12:51:29.251008", "MEAN_MOTION": 13.96156142, "ECCENTRICITY": 0.02146813, "INCLINATION": 74.0888, "RA_OF_ASC_NODE": 25.8401, "ARG_OF_PERICENTER": 92.516, "MEAN_ANOMALY": 26.9655, "EPHEMERIS_TYPE": 0, "CLASSIFICATION_TYPE": "U", "NORAD_CAT_ID": 34050, "ELEMENT_SET_NO": 999, "REV_AT_EPOCH": 85303, "BSTAR": 0.00075782438, "MEAN_MOTION_DOT": 1.242e-05, "MEAN_MOTION_DDOT": 0}, "tle": {"line1": "1 34050U 93036JM  25337.53575522  .00001242  00000+0  75782-3 0  9997", "line2": "2 34050  74.0888  25.8401 0214681  92.5160  26.9655 13.96156142853034"}}, "geometry": {"type": "Point", "coordinates": [134.64220225474088, 73.09940974638035]}}, {"type": "Feature", "properties": {"norad_id": 34053, "name": "COSMOS 2251 DEB", "group": "cosmos-2251-debris", "lat": 49.751238554107616, "lon": -84.23662997642667, "alt_km": 758.2579502660756, "timestamp": "2025-12-04T07:39:36.525505+00:00", "meta": {"OBJECT_NAME": "COSMOS 2251 DEB", "OBJECT_ID": "1993-036JQ", "EPOCH": "2025-12-03T20:44:33.400608", "MEAN_MOTION": 13.49137758, "ECCENTRICITY": 0.04217165, "INCLINATION": 73.8444, "RA_OF_ASC_NODE": 256.4723, "ARG_OF_PERICENTER": 46.5121, "MEAN_ANOMALY": 317.024, "EPHEMERIS_TYPE": 0, "CLASSIFICATION_TYPE": "U", "NORAD_CAT_ID": 34053, "ELEMENT_SET_NO": 999, "REV_AT_EPOCH": 82564, "BSTAR": 0.0011157709, "MEAN_MOTION_DOT": 1.194e-05, "MEAN_MOTION_DDOT": 0}, "tle": {"line1": "1 34053U 93036JQ  25337.86427547  .00001194  00000+0  11158-2 0  9991", "line2": "2 34053  73.8444 256.4723 0421716  46.5121 317.0240 13.49137758825646"}}, "geometry": {"type": "Point", "coordinates": [-84.23662997642667, 49.751238554107616]}}, {"type": "Feature", "properties": {"norad_id": 34056, "name": "COSMOS 2251 DEB", "group": "cosmos-2251-debris", "lat": -42.819527898584624, "lon": -73.20935869305447, "alt_km": 818.6321951208356, "timestamp": "2025-12-04T07:39:36.525514+00:00", "meta": {"OBJECT_NAME": "COSMOS 2251 DEB", "OBJECT_ID": "1993-036JT", "EPOCH": "2025-12-03T17:41:46.568256", "MEAN_MOTION": 14.20482516, "ECCENTRICITY": 0.01248212, "INCLINATION": 74.0595, "RA_OF_ASC_NODE": 92.4731, "ARG_OF_PERICENTER": 142.6141, "MEAN_ANOMALY": 346.7228, "EPHEMERIS_TYPE": 0, "CLASSIFICATION_TYPE": "U", "NORAD_CAT_ID": 34056, "ELEMENT_SET_NO": 999, "REV_AT_EPOCH": 86283, "BSTAR": 0.0021548056, "MEAN_MOTION_DOT": 4.982e-05, "MEAN_MOTION_DDOT": 0}, "tle": {"line1": "1 34056U 93036JT  25337.73734454  .00004982  00000+0  21548-2 0  9990", "line2": "2 34056  74.0595  92.4731 0124821 142.6141 346.7228 14.20482516862835"}}, "geometry": {"type": "Point", "coordinates": [-73.20935869305447, -42.819527898584624]}}]}